[{"OBJECT_NAME":"STARLINK-2476","OBJECT_ID":"2021-027AU","EPOCH":"2025-08-01T00:49:56.292384","MEAN_MOTION":15.06398624,"ECCENTRICITY":0.0001304,"INCLINATION":53.0548,"RA_OF_ASC_NODE":82.1784,"ARG_OF_PERICENTER":99.1879,"MEAN_ANOMALY":260.9258,"EPHEMERIS_TYPE":0,"CLASSIFICATION_TYPE":"U","NORAD_CAT_ID":48134,"ELEMENT_SET_NO":999,"REV_AT_EPOCH":23915,"BSTAR":5.5656e-5,"MEAN_MOTION_DOT":5.48e-6,"MEAN_MOTION_DDOT":0},{"OBJECT_NAME":"STARLINK-2478","OBJECT_ID":"2021-027AV","EPOCH":"2025-08-01T15:11:47.924448","MEAN_MOTION":15.06408635,"ECCENTRICITY":0.0001213,"INCLINATION":53.0554,"RA_OF_ASC_NODE":84.6543,"ARG_OF_PERICENTER":102.1644,"MEAN_ANOMALY":257.9481,"EPHEMERIS_TYPE":0,"CLASSIFICATION_TYPE":"U","NORAD_CAT_ID":48135,"ELEMENT_SET_NO":999,"REV_AT_EPOCH":23877,"BSTAR":0.00011271,"MEAN_MOTION_DOT":1.398e-5,"MEAN_MOTION_DDOT":0},{"OBJECT_NAME":"STARLINK-2479","OBJECT_ID":"2021-027AW","EPOCH":"2025-08-02T00:53:43.616832","MEAN_MOTION":15.06405071,"ECCENTRICITY":0.000131,"INCLINATION":53.0535,"RA_OF_ASC_NODE":78.1753,"ARG_OF_PERICENTER":95.8531,"MEAN_ANOMALY":264.2607,"EPHEMERIS_TYPE":0,"CLASSIFICATION_TYPE":"U","NORAD_CAT_ID":48136,"ELEMENT_SET_NO":999,"REV_AT_EPOCH":23930,"BSTAR":0.00055882,"MEAN_MOTION_DOT":8.053e-5,"MEAN_MOTION_DDOT":0},{"OBJECT_NAME":"STARLINK-2480","OBJECT_ID":"2021-027AX","EPOCH":"2025-08-01T22:43:35.379264","MEAN_MOTION":15.06402397,"ECCENTRICITY":0.0001355,"INCLINATION":53.0548,"RA_OF_ASC_NODE":58.0538,"ARG_OF_PERICENTER":88.0939,"MEAN_ANOMALY":272.0205,"EPHEMERIS_TYPE":0,"CLASSIFICATION_TYPE":"U","NORAD_CAT_ID":48137,"ELEMENT_SET_NO":999,"REV_AT_EPOCH":23957,"BSTAR":2.9455e-5,"MEAN_MOTION_DOT":1.57e-6,"MEAN_MOTION_DDOT":0},{"OBJECT_NAME":"STARLINK-2481","OBJECT_ID":"2021-027AY","EPOCH":"2025-08-02T15:18:49.202208","MEAN_MOTION":15.06379053,"ECCENTRICITY":0.0001085,"INCLINATION":53.0552,"RA_OF_ASC_NODE":74.9889,"ARG_OF_PERICENTER":24.2019,"MEAN_ANOMALY":335.9021,"EPHEMERIS_TYPE":0,"CLASSIFICATION_TYPE":"U","NORAD_CAT_ID":48138,"ELEMENT_SET_NO":999,"REV_AT_EPOCH":23900,"BSTAR":5.9223e-5,"MEAN_MOTION_DOT":6.0e-6,"MEAN_MOTION_DDOT":0},{"OBJECT_NAME":"STARLINK-2482","OBJECT_ID":"2021-027AZ","EPOCH":"2025-08-02T13:29:59.504064","MEAN_MOTION":15.0640488,"ECCENTRICITY":0.0001376,"INCLINATION":53.0547,"RA_OF_ASC_NODE":55.3229,"ARG_OF_PERICENTER":88.2688,"MEAN_ANOMALY":271.8458,"EPHEMERIS_TYPE":0,"CLASSIFICATION_TYPE":"U","NORAD_CAT_ID":48139,"ELEMENT_SET_NO":999,"REV_AT_EPOCH":23927,"BSTAR":0.00038019,"MEAN_MOTION_DOT":5.387e-5,"MEAN_MOTION_DDOT":0},{"OBJECT_NAME":"STARLINK-2483","OBJECT_ID":"2021-027BA","EPOCH":"2025-08-02T13:59:17.484000","MEAN_MOTION":15.06395653,"ECCENTRICITY":0.0001393,"INCLINATION":53.0547,"RA_OF_ASC_NODE":75.7814,"ARG_OF_PERICENTER":86.3855,"MEAN_ANOMALY":273.7293,"EPHEMERIS_TYPE":0,"CLASSIFICATION_TYPE":"U","NORAD_CAT_ID":48140,"ELEMENT_SET_NO":999,"REV_AT_EPOCH":23938,"BSTAR":-3.6799e-5,"MEAN_MOTION_DOT":-8.29e-6,"MEAN_MOTION_DDOT":0},{"OBJECT_NAME":"STARLINK-2485","OBJECT_ID":"2021-027BC","EPOCH":"2025-08-02T13:24:41.093280","MEAN_MOTION":15.06399841,"ECCENTRICITY":0.0001443,"INCLINATION":53.0549,"RA_OF_ASC_NODE":55.3362,"ARG_OF_PERICENTER":92.6526,"MEAN_ANOMALY":267.4628,"EPHEMERIS_TYPE":0,"CLASSIFICATION_TYPE":"U","NORAD_CAT_ID":48142,"ELEMENT_SET_NO":999,"REV_AT_EPOCH":23967,"BSTAR":0.00016039,"MEAN_MOTION_DOT":2.108e-5,"MEAN_MOTION_DDOT":0},{"OBJECT_NAME":"STARLINK-2486","OBJECT_ID":"2021-027BD","EPOCH":"2025-08-02T19:34:15.394944","MEAN_MOTION":15.06400858,"ECCENTRICITY":0.0001214,"INCLINATION":53.0554,"RA_OF_ASC_NODE":9.2847,"ARG_OF_PERICENTER":81.741,"MEAN_ANOMALY":278.3717,"EPHEMERIS_TYPE":0,"CLASSIFICATION_TYPE":"U","NORAD_CAT_ID":48143,"ELEMENT_SET_NO":999,"REV_AT_EPOCH":23993,"BSTAR":-2.1542e-5,"MEAN_MOTION_DOT":-6.02e-6,"MEAN_MOTION_DDOT":0},{"OBJECT_NAME":"STARLINK-2487","OBJECT_ID":"2021-027BE","EPOCH":"2025-08-02T13:35:18.187872","MEAN_MOTION":15.06398847,"ECCENTRICITY":0.0001377,"INCLINATION":53.0557,"RA_OF_ASC_NODE":55.3066,"ARG_OF_PERICENTER":86.2133,"MEAN_ANOMALY":273.9013,"EPHEMERIS_TYPE":0,"CLASSIFICATION_TYPE":"U","NORAD_CAT_ID":48144,"ELEMENT_SET_NO":999,"REV_AT_EPOCH":23927,"BSTAR":0.00010081,"MEAN_MOTION_DOT":1.22e-5,"MEAN_MOTION_DDOT":0},{"OBJECT_NAME":"STARLINK-2488","OBJECT_ID":"2021-027BF","EPOCH":"2025-08-02T13:40:36.739488","MEAN_MOTION":15.06403611,"ECCENTRICITY":0.0001986,"INCLINATION":53.0527,"RA_OF_ASC_NODE":55.2853,"ARG_OF_PERICENTER":96.1099,"MEAN_ANOMALY":264.0116,"EPHEMERIS_TYPE":0,"CLASSIFICATION_TYPE":"U","NORAD_CAT_ID":48145,"ELEMENT_SET_NO":999,"REV_AT_EPOCH":23927,"BSTAR":8.0637e-5,"MEAN_MOTION_DOT":9.2e-6,"MEAN_MOTION_DDOT":0},{"OBJECT_NAME":"STARLINK-2491","OBJECT_ID":"2021-027BJ","EPOCH":"2025-08-02T00:05:52.209600","MEAN_MOTION":15.0639815,"ECCENTRICITY":0.0001213,"INCLINATION":53.055,"RA_OF_ASC_NODE":77.8296,"ARG_OF_PERICENTER":84.7511,"MEAN_ANOMALY":275.3616,"EPHEMERIS_TYPE":0,"CLASSIFICATION_TYPE":"U","NORAD_CAT_ID":48148,"ELEMENT_SET_NO":999,"REV_AT_EPOCH":23929,"BSTAR":0.00024353,"MEAN_MOTION_DOT":3.348e-5,"MEAN_MOTION_DDOT":0},{"OBJECT_NAME":"STARLINK-2492","OBJECT_ID":"2021-027BK","EPOCH":"2025-08-02T13:08:46.514112","MEAN_MOTION":15.06390556,"ECCENTRICITY":0.0001498,"INCLINATION":53.0544,"RA_OF_ASC_NODE":55.3862,"ARG_OF_PERICENTER":98.0668,"MEAN_ANOMALY":262.0491,"EPHEMERIS_TYPE":0,"CLASSIFICATION_TYPE":"U","NORAD_CAT_ID":48149,"ELEMENT_SET_NO":999,"REV_AT_EPOCH":23926,"BSTAR":0.0001237,"MEAN_MOTION_DOT":1.561e-5,"MEAN_MOTION_DDOT":0},{"OBJECT_NAME":"STARLINK-2493","OBJECT_ID":"2021-027BL","EPOCH":"2025-08-02T13:14:04.882560","MEAN_MOTION":15.06396219,"ECCENTRICITY":0.0001499,"INCLINATION":53.0549,"RA_OF_ASC_NODE":55.3678,"ARG_OF_PERICENTER":91.5734,"MEAN_ANOMALY":268.5427,"EPHEMERIS_TYPE":0,"CLASSIFICATION_TYPE":"U","NORAD_CAT_ID":48150,"ELEMENT_SET_NO":999,"REV_AT_EPOCH":23967,"BSTAR":0.0001979,"MEAN_MOTION_DOT":2.667e-5,"MEAN_MOTION_DDOT":0},{"OBJECT_NAME":"STARLINK-2503","OBJECT_ID":"2021-027BM","EPOCH":"2025-08-02T13:19:23.708928","MEAN_MOTION":15.06391947,"ECCENTRICITY":0.0001205,"INCLINATION":53.0541,"RA_OF_ASC_NODE":55.3502,"ARG_OF_PERICENTER":100.3127,"MEAN_ANOMALY":259.7998,"EPHEMERIS_TYPE":0,"CLASSIFICATION_TYPE":"U","NORAD_CAT_ID":48151,"ELEMENT_SET_NO":999,"REV_AT_EPOCH":23967,"BSTAR":0.00017156,"MEAN_MOTION_DOT":2.274e-5,"MEAN_MOTION_DDOT":0},{"OBJECT_NAME":"STARLINK-2567","OBJECT_ID":"2021-036A","EPOCH":"2025-08-02T11:07:20.949024","MEAN_MOTION":15.06394635,"ECCENTRICITY":0.0001279,"INCLINATION":53.0552,"RA_OF_ASC_NODE":310.7617,"ARG_OF_PERICENTER":123.9862,"MEAN_ANOMALY":236.1249,"EPHEMERIS_TYPE":0,"CLASSIFICATION_TYPE":"U","NORAD_CAT_ID":48276,"ELEMENT_SET_NO":999,"REV_AT_EPOCH":23576,"BSTAR":9.0096e-5,"MEAN_MOTION_DOT":1.061e-5,"MEAN_MOTION_DDOT":0},{"OBJECT_NAME":"STARLINK-2569","OBJECT_ID":"2021-036B","EPOCH":"2025-08-02T19:07:02.308800","MEAN_MOTION":15.0639112,"ECCENTRICITY":0.0001262,"INCLINATION":53.0546,"RA_OF_ASC_NODE":274.2701,"ARG_OF_PERICENTER":86.7722,"MEAN_ANOMALY":273.3411,"EPHEMERIS_TYPE":0,"CLASSIFICATION_TYPE":"U","NORAD_CAT_ID":48277,"ELEMENT_SET_NO":999,"REV_AT_EPOCH":23688,"BSTAR":-6.5542e-5,"MEAN_MOTION_DOT":-1.257e-5,"MEAN_MOTION_DDOT":0}]
