STARLINK-2476           
1 48134U 21027AU  25213.03467931  .00000548  00000+0  55656-4 0  9995
2 48134  53.0548  82.1784 0001304  99.1879 260.9258 15.06398624239154
STARLINK-2478           
1 48135U 21027AV  25213.63319357  .00001398  00000+0  11271-3 0  9998
2 48135  53.0554  84.6543 0001213 102.1644 257.9481 15.06408635238771
STARLINK-2479           
1 48136U 21027AW  25214.03731038  .00008053  00000+0  55882-3 0  9999
2 48136  53.0535  78.1753 0001310  95.8531 264.2607 15.06405071239305
STARLINK-2480           
1 48137U 21027AX  25213.94693726  .00000157  00000+0  29455-4 0  9995
2 48137  53.0548  58.0538 0001355  88.0939 272.0205 15.06402397239571
STARLINK-2481           
1 48138U 21027AY  25214.63806947  .00000600  00000+0  59223-4 0  9993
2 48138  53.0552  74.9889 0001085  24.2019 335.9021 15.06379053239009
STARLINK-2482           
1 48139U 21027AZ  25214.56249426  .00005387  00000+0  38019-3 0  9995
2 48139  53.0547  55.3229 0001376  88.2688 271.8458 15.06404880239278
STARLINK-2483           
1 48140U 21027BA  25214.58284125 -.00000829  00000+0 -36799-4 0  9996
2 48140  53.0547  75.7814 0001393  86.3855 273.7293 15.06395653239387
STARLINK-2485           
1 48142U 21027BC  25214.55880895  .00002108  00000+0  16039-3 0  9995
2 48142  53.0549  55.3362 0001443  92.6526 267.4628 15.06399841239671
STARLINK-2486           
1 48143U 21027BD  25214.81545596 -.00000602  00000+0 -21542-4 0  9996
2 48143  53.0554   9.2847 0001214  81.7410 278.3717 15.06400858239931
STARLINK-2487           
1 48144U 21027BE  25214.56618273  .00001220  00000+0  10081-3 0  9992
2 48144  53.0557  55.3066 0001377  86.2133 273.9013 15.06398847239273
STARLINK-2488           
1 48145U 21027BF  25214.56986967  .00000920  00000+0  80637-4 0  9992
2 48145  53.0527  55.2853 0001986  96.1099 264.0116 15.06403611239272
STARLINK-2491           
1 48148U 21027BJ  25214.00407650  .00003348  00000+0  24353-3 0  9990
2 48148  53.0550  77.8296 0001213  84.7511 275.3616 15.06398150239290
STARLINK-2492           
1 48149U 21027BK  25214.54776058  .00001561  00000+0  12370-3 0  9992
2 48149  53.0544  55.3862 0001498  98.0668 262.0491 15.06390556239263
STARLINK-2493           
1 48150U 21027BL  25214.55144540  .00002667  00000+0  19790-3 0  9991
2 48150  53.0549  55.3678 0001499  91.5734 268.5427 15.06396219239675
STARLINK-2503           
1 48151U 21027BM  25214.55513552  .00002274  00000+0  17156-3 0  9993
2 48151  53.0541  55.3502 0001205 100.3127 259.7998 15.06391947239672
STARLINK-2567           
1 48276U 21036A   25214.46343691  .00001061  00000+0  90096-4 0  9994
2 48276  53.0552 310.7617 0001279 123.9862 236.1249 15.06394635235766
STARLINK-2569           
1 48277U 21036B   25214.79655450 -.00001257  00000+0 -65542-4 0  9997
2 48277  53.0546 274.2701 0001262  86.7722 273.3411 15.06391120236885
